NORAD_CAT_ID,OBJECT_NAME,OBJECT_TYPE,EPOCH,MEAN_MOTION,ECCENTRICITY,INCLINATION,RA_OF_ASC_NODE,ARG_OF_PERICENTER,MEAN_ANOMALY,BSTAR,MEAN_MOTION_DOT,MEAN_MOTION_DDOT,TLE_LINE0,TLE_LINE1,TLE_LINE2,SEMIMAJOR_AXIS,PERIOD,APOGEE,PERIGEE,DECAYED
52878.0,STARLINK-4171,PAYLOAD,2022-07-04 14:00:01,15.73194872,0.0001794,53.2156,320.4141,49.0386,47.1296,-2.9683e-05,-4.783e-05,0.0,0 STARLINK-4171,1 52878U 22062BA  22185.58334491 -.00004783  00000-0 -29683-4 0  9993,2 52878  53.2156 320.4141 0001794  49.0386  47.1296 15.73194872  1300,6727.91,91.533,350.982,348.5680000000001,0.0
52878.0,STARLINK-4171,PAYLOAD,2022-07-04 22:00:00,15.73225489,0.0001853,53.2148,318.765,44.1944,140.9189,0.00027994,0.00038893,0.0,0 STARLINK-4171,1 52878U 22062BA  22185.91667824  .00038893  00000-0  27994-3 0  9998,2 52878  53.2148 318.7650 0001853  44.1944 140.9189 15.73225489  3234,6727.823,91.532,350.934,348.441,0.0
52878.0,STARLINK-4171,PAYLOAD,2022-07-05 14:00:01,15.73256255,0.0001571,53.2152,315.4653,38.5054,324.5593,-0.00091559,-0.00127499,0.0,0 STARLINK-4171,1 52878U 22062BA  22186.58334491 -.00127499  00000-0 -91559-3 0  9994,2 52878  53.2152 315.4653 0001571  38.5054 324.5593 15.73256255  3348,6727.735,91.53,350.657,348.543,0.0
52878.0,STARLINK-4171,PAYLOAD,2022-07-05 22:00:00,15.73199741,0.000179,53.2155,313.816,35.9162,56.0841,-0.0010267999999999,-0.00142322,0.0,0 STARLINK-4171,1 52878U 22062BA  22186.91667824 -.00142322  00000-0 -10268-2 0  9999,2 52878  53.2155 313.8160 0001790  35.9162  56.0841 15.73199741  1303,6727.896,91.533,350.965,348.557,0.0
52878.0,STARLINK-4171,PAYLOAD,2022-07-06 06:00:00,15.73105196,0.0001583,53.2152,312.1647,41.8562,139.0102,0.00052306,0.00073131,0.0,0 STARLINK-4171,1 52878U 22062BA  22187.25001157  .00073131  00000-0  52306-3 0  9997,2 52878  53.2152 312.1647 0001583  41.8562 139.0102 15.73105196  3442,6728.165,91.539,351.096,348.965,0.0
52878.0,STARLINK-4171,PAYLOAD,2022-07-06 14:00:01,15.73156567,0.0001822,53.2153,310.5172,38.8963,230.8162,5.2339e-05,6.717e-05,0.0,0 STARLINK-4171,1 52878U 22062BA  22187.58334491  .00006717  00000-0  52339-4 0  9996,2 52878  53.2153 310.5172 0001822  38.8963 230.8162 15.73156567  1302,6728.019,91.536,351.11,348.658,0.0
52878.0,STARLINK-4171,PAYLOAD,2022-07-06 22:00:00,15.73127178,0.0001881,53.2157,308.8678,37.9807,320.6161,0.0011663,0.00165817,0.0,0 STARLINK-4171,1 52878U 22062BA  22187.91667824  .00165817  00000-0  11663-2 0  9992,2 52878  53.2157 308.8678 0001881  37.9807 320.6161 15.73127178  3551,6728.103,91.537,351.233,348.702,0.0
52878.0,STARLINK-4171,PAYLOAD,2022-07-07 04:06:19,15.73189431,0.0001717,53.2153,307.6075,40.1442,319.9705,0.00023957,0.0003312,0.0,0 STARLINK-4171,1 52878U 22062BA  22188.17106037  .00033120  00000-0  23957-3 0  9996,2 52878  53.2153 307.6075 0001717  40.1442 319.9705 15.73189431  3593,6727.925,91.534,350.945,348.635,0.0
52878.0,STARLINK-4171,PAYLOAD,2022-07-07 14:00:01,15.73223438,0.0001841,53.2151,305.5687,37.2309,139.2139,8.251e-05,0.00010986,0.0,0 STARLINK-4171,1 52878U 22062BA  22188.58334491  .00010986  00000-0  82510-4 0  9994,2 52878  53.2151 305.5687 0001841  37.2309 139.2139 15.73223438  1301,6727.828,91.532,350.932,348.455,0.0
52878.0,STARLINK-4171,PAYLOAD,2022-07-07 20:52:35,15.73261456,0.0001952,53.2151,304.1491,37.9848,322.1309,0.00039993,0.00056033,0.0,0 STARLINK-4171,1 52878U 22062BA  22188.86985963  .00056033  00000-0  39993-3 0  9990,2 52878  53.2151 304.1491 0001952  37.9848 322.1309 15.73261456  3213,6727.72,91.53,350.898,348.272,0.0
52878.0,STARLINK-4171,PAYLOAD,2022-07-08 06:00:02,15.73204427,0.0001638,53.2152,302.2669,30.6897,323.8024,0.00050249,0.00070509,0.0,0 STARLINK-4171,1 52878U 22062BA  22189.25002315  .00070509  00000-0  50249-3 0  9996,2 52878  53.2152 302.2669 0001638  30.6897 323.8024 15.73204427  3762,6727.8830000000025,91.533,350.85,348.646,0.0
52878.0,STARLINK-4171,PAYLOAD,2022-07-08 07:32:55,15.73279896,0.000195,53.2151,301.9484,39.4585,320.6577,0.00019981,0.0002761,0.0,0 STARLINK-4171,1 52878U 22062BA  22189.31453581  .00027610  00000-0  19981-3 0  9991,2 52878  53.2151 301.9484 0001950  39.4585 320.6577 15.73279896  3771,6727.667,91.529,350.844,348.221,0.0
52878.0,STARLINK-4171,PAYLOAD,2022-07-08 13:38:49,15.73300263,0.0001904,53.2151,300.6909,35.7817,324.333,0.00024745,0.000344,0.0,0 STARLINK-4171,1 52878U 22062BA  22189.56863403  .00034400  00000-0  24745-3 0  9995,2 52878  53.2151 300.6909 0001904  35.7817 324.3330 15.73300263  3327,6727.609,91.527,350.755,348.1930000000001,0.0
52878.0,STARLINK-4171,PAYLOAD,2022-07-08 14:00:01,15.73329705,0.0001887,53.2163,300.6193,29.1408,54.2376,-0.0020629,-0.00282234,0.0,0 STARLINK-4171,1 52878U 22062BA  22189.58334491 -.00282234  00000-0 -20629-2 0  9995,2 52878  53.2163 300.6193 0001887  29.1408  54.2376 15.73329705  3813,6727.525,91.526,350.66,348.121,0.0
52878.0,STARLINK-4171,PAYLOAD,2022-07-08 22:00:01,15.73333654,0.0001878,53.2146,298.9688,22.2485,150.3238,-0.00079147,-0.00110887,0.0,0 STARLINK-4171,1 52878U 22062BA  22189.91668981 -.00110887  00000-0 -79147-3 0  9990,2 52878  53.2146 298.9688 0001878  22.2485 150.3238 15.73333654  1306,6727.514,91.525,350.64300000000014,348.116,0.0
52878.0,STARLINK-4171,PAYLOAD,2022-07-09 06:00:00,15.73251081,0.0001675,53.2148,297.3175,26.907,234.6184,-0.00126,-0.00174231,0.0,0 STARLINK-4171,1 52878U 22062BA  22190.25001157 -.00174231  00000-0 -12600-2 0  9998,2 52878  53.2148 297.3175 0001675  26.9070 234.6184 15.73251081  3927,6727.75,91.53,350.741,348.48800000000006,0.0
52878.0,STARLINK-4171,PAYLOAD,2022-07-09 14:00:01,15.730976,0.000196,53.2152,295.6703,24.5264,325.9268,-0.00079392,-0.00110123,0.0,0 STARLINK-4171,1 52878U 22062BA  22190.58334491 -.00110123  00000-0 -79392-3 0  9996,2 52878  53.2152 295.6703 0001960  24.5264 325.9268 15.73097600  1308,6728.187,91.539,351.371,348.733,0.0
52878.0,STARLINK-4171,PAYLOAD,2022-07-09 20:00:01,15.72995567,0.000205,53.2149,294.4332,22.5688,304.449,0.00051806,0.00072079,0.0,0 STARLINK-4171,1 52878U 22062BA  22190.83334491  .00072079  00000-0  51806-3 0  9999,2 52878  53.2149 294.4332 0002050  22.5688 304.4490 15.72995567  1305,6728.478,91.545,351.722,348.964,0.0
52878.0,STARLINK-4171,PAYLOAD,2022-07-10 14:00:01,15.73194217,0.000216,53.2155,290.7225,23.7127,233.0065,0.00030379,0.00042221,0.0,0 STARLINK-4171,1 52878U 22062BA  22191.58334491  .00042221  00000-0  30379-3 0  9990,2 52878  53.2155 290.7225 0002160  23.7127 233.0065 15.73194217  4138,6727.9119999999975,91.534,351.23,348.3230000000001,0.0
52878.0,STARLINK-4171,PAYLOAD,2022-07-10 22:00:00,15.73256071,0.0002129,53.2151,289.072,21.4806,324.191,5.0111e-05,6.434e-05,0.0,0 STARLINK-4171,1 52878U 22062BA  22191.91667824  .00006434  00000-0  50111-4 0  9999,2 52878  53.2151 289.0720 0002129  21.4806 324.1910 15.73256071  1303,6727.735,91.53,351.033,348.168,0.0
52878.0,STARLINK-4171,PAYLOAD,2022-07-11 06:00:00,15.732886,0.0002023,53.2154,287.4212,26.853,47.8168,6.9099e-05,9.124e-05,0.0,0 STARLINK-4171,1 52878U 22062BA  22192.25001157  .00009124  00000-0  69099-4 0  9992,2 52878  53.2154 287.4212 0002023  26.8530  47.8168 15.73288600  4232,6727.643,91.528,350.869,348.147,0.0
52878.0,STARLINK-4171,PAYLOAD,2022-07-11 14:00:01,15.73274673,0.0002317,53.2154,285.7736,25.4204,138.2865,-0.00047478,-0.00066948,0.0,0 STARLINK-4171,1 52878U 22062BA  22192.58334491 -.00066948  00000-0 -47478-3 0  9993,2 52878  53.2154 285.7736 0002317  25.4204 138.2865 15.73274673  1302,6727.682,91.529,351.106,347.98800000000006,0.0
52878.0,STARLINK-4171,PAYLOAD,2022-07-11 22:00:00,15.73248541,0.0002307,53.2154,284.123,25.6271,227.0735,-0.00083831,-0.00116912,0.0,0 STARLINK-4171,1 52878U 22062BA  22192.91667824 -.00116912  00000-0 -83831-3 0  9999,2 52878  53.2154 284.1230 0002307  25.6271 227.0735 15.73248541  1307,6727.757,91.53,351.1740000000001,348.07,0.0
52878.0,STARLINK-4171,PAYLOAD,2022-07-12 06:00:00,15.73174892,0.0002307,53.2159,282.4724,30.9923,310.6468,0.00048714,0.00068235,0.0,0 STARLINK-4171,1 52878U 22062BA  22193.25001157  .00068235  00000-0  48714-3 0  9991,2 52878  53.2159 282.4724 0002307  30.9923 310.6468 15.73174892  4395,6727.967,91.535,351.384,348.28,0.0
52878.0,STARLINK-4171,PAYLOAD,2022-07-12 14:00:01,15.73225332,0.0002586,53.2157,280.8252,27.7677,42.81399999999999,0.00033142,0.00046203,0.0,0 STARLINK-4171,1 52878U 22062BA  22193.58334491  .00046203  00000-0  33142-3 0  9997,2 52878  53.2157 280.8252 0002586  27.7677  42.8140 15.73225332  1305,6727.823,91.532,351.42800000000005,347.9480000000001,0.0
52878.0,STARLINK-4171,PAYLOAD,2022-07-12 22:00:00,15.73284134,0.0002474,53.2152,279.1744,24.8196,134.7549,-0.00036568,-0.00051821,0.0,0 STARLINK-4171,1 52878U 22062BA  22193.91667824 -.00051821  00000-0 -36568-3 0  9992,2 52878  53.2152 279.1744 0002474  24.8196 134.7549 15.73284134  1306,6727.655,91.528,351.185,347.856,0.0
52878.0,STARLINK-4171,PAYLOAD,2022-07-13 04:00:00,15.73262996,0.0002325,53.2152,277.9362,27.2652,109.057,-0.00010524,-0.00015407,0.0,0 STARLINK-4171,1 52878U 22062BA  22194.16667824 -.00015407  00000-0 -10524-3 0  9994,2 52878  53.2152 277.9362 0002325  27.2652 109.0570 15.73262996  4536,6727.715999999999,91.53,351.145,348.016,0.0
52878.0,STARLINK-4171,PAYLOAD,2022-07-13 14:00:01,15.73212281,0.0002568,53.2152,275.8767,24.5983,312.9493,-0.00065723,-0.00091925,0.0,0 STARLINK-4171,1 52878U 22062BA  22194.58334491 -.00091925  00000-0 -65723-3 0  9991,2 52878  53.2152 275.8767 0002568  24.5983 312.9493 15.73212281  4607,6727.86,91.532,351.45300000000015,347.997,0.0
52878.0,STARLINK-4171,PAYLOAD,2022-07-13 22:00:00,15.73149642,0.000248,53.2152,274.226,22.1696,44.2765,-0.00059431,-0.00083046,0.0,0 STARLINK-4171,1 52878U 22062BA  22194.91667824 -.00083046  00000-0 -59431-3 0  9991,2 52878  53.2152 274.2260 0002480  22.1696  44.2765 15.73149642  1307,6728.0390000000025,91.536,351.57199999999995,348.235,0.0
